IRIDIUM 144             
1 43249U 18030A   26024.85628234  .00000497  00000+0  17023-3 0  9991
2 43249  86.3992 350.3190 0002132  81.5452 278.5986 14.34216371409599
IRIDIUM 149             
1 43250U 18030B   26024.44401306  .00000574  00000+0  19787-3 0  9992
2 43250  86.4001 350.4585 0002271  86.1999 273.9457 14.34213154409557
IRIDIUM 157             
1 43251U 18030C   26024.88165113  .00000436  00000+0  14874-3 0  9993
2 43251  86.3998 350.3267 0002149  85.5187 274.6255 14.34215674409591
IRIDIUM 140             
1 43252U 18030D   26024.90068269  .00000466  00000+0  15927-3 0  9994
2 43252  86.3996 350.3320 0002250  81.7825 278.3626 14.34216423409653
IRIDIUM 145             
1 43253U 18030E   26024.88800111  .00000258  00000+0  85089-4 0  9998
2 43253  86.4001 350.3098 0002123  77.9701 282.1733 14.34216860409582
IRIDIUM 146             
1 43254U 18030F   26024.86897131  .00000422  00000+0  14379-3 0  9991
2 43254  86.3993 350.3304 0002044  81.0962 279.0465 14.34217743409598
IRIDIUM 148             
1 43255U 18030G   26024.83726168  .00000484  00000+0  16573-3 0  9996
2 43255  86.3997 350.3843 0002176  86.5510 273.5935 14.34216662409620
IRIDIUM 142             
1 43256U 18030H   26024.87531688  .00000321  00000+0  10754-3 0  9997
2 43256  86.3992 350.2629 0002110  75.9837 284.1593 14.34218290409592
